RADUGA 1 [-]            
1 08513U 75123A   16139.03417630 -.00000030  00000-0  00000+0 0  9992
2 08513  11.1449 316.8209 0008214 174.5861 182.7684  1.00260031158020
RADUGA 2 [-]            
1 09416U 76092A   16138.61961045 -.00000091  00000-0  00000+0 0  9995
2 09416  11.7442 318.7246 0027522 282.8021 289.3928  1.00298463 92402
RADUGA 3 [-]            
1 10159U 77071A   16137.84766737  .00000121  00000-0  00000+0 0  9997
2 10159  12.2725 321.0136 0010855 189.2468  64.4121  1.00264667140117
RADUGA 4 [-]            
1 10987U 78073A   16138.50306046 -.00000297  00000-0  00000+0 0  9991
2 10987  12.7718 323.8468 0011179 276.9855 269.8678  1.00338893 82661
RADUGA 5 [-]            
1 11343U 79035A   16138.50019877 -.00000216  00000-0  00000+0 0  9991
2 11343  13.1204 326.0703 0003268 146.0547  29.2963  1.00273291 92391
RADUGA 6 [-]            
1 11708U 80016A   16137.57772536 -.00000355  00000-0  00000+0 0  9995
2 11708  13.3509 328.5083 0004948 206.8823  11.4559  1.00304146 85213
RADUGA 7 [-]            
1 12003U 80081A   16136.60421124  .00000094  00000-0  00000+0 0  9992
2 12003  13.4431 330.1316 0012448 218.1196 111.2491  1.00198180 86469
RADUGA 8 [-]            
1 12351U 81027A   16138.15982689 -.00000288  00000-0  00000+0 0  9995
2 12351  13.7330 330.9326 0087341 165.1418  81.7320  1.00401978 85561
RADUGA 9 [-]            
1 12618U 81069A   16137.73286734 -.00000380  00000-0  00000-0 0  9992
2 12618  13.8180 333.0368 0001529 173.7748 104.7976  1.00251594 10407
RADUGA 10 [-]           
1 12897U 81102A   16138.94478400 -.00000180  00000-0  00000+0 0  9993
2 12897  13.8554 333.7508 0005613 162.6857 161.0182  1.00292247 80479
RADUGA 11 [-]           
1 13669U 82113A   16137.69640501 -.00000120  00000-0  00000-0 0  9993
2 13669  15.1859 344.4758 0043095 195.1530 337.5111  0.97708514 85540
RADUGA 12 [-]           
1 13974U 83028A   16137.59163058 -.00000033  00000-0  00000+0 0  9996
2 13974  14.4243 342.0171 0001756 228.7708 302.2217  1.00278307132433
RADUGA 13 [-]           
1 14307U 83088A   16138.13692696 -.00000038  00000-0  00000+0 0  9994
2 14307  15.2914 346.2159 0014820 330.7642 211.3121  0.98172743 82775
RADUGA 14 [-]           
1 14725U 84016A   16137.56312247 -.00000229  00000-0  00000-0 0  9990
2 14725  14.3878 345.0300 0002373 149.3321  29.5186  1.00278801 81169
RADUGA 15 [-]           
1 15057U 84063A   16137.71958981 -.00000050  00000-0  00000-0 0  9991
2 15057  14.4378 346.0065 0003547 155.3626  57.4622  1.00377481104167
RADUGA 16 [-]           
1 15946U 85070A   16137.39019978 -.00000310  00000-0  00000-0 0  9994
2 15946  14.5578 350.1483 0003803 207.1307 128.2084  1.00332475 85288
RADUGA 17 [-]           
1 16250U 85107A   16137.60124757 -.00000219  00000-0  00000+0 0  9997
2 16250  14.5810 351.2970 0012437 143.2983 110.0121  1.00189469114908
RADUGA 18 [-]           
1 16497U 86007A   16136.96857499 -.00000076  00000-0  00000-0 0  9996
2 16497  15.2201 353.5212 0072755 106.5703 152.1518  0.98812679109451
RADUGA 19 [-]           
1 17046U 86082A   16138.00428925 -.00000188  00000-0  00000+0 0  9998
2 17046  15.3355 356.9360 0010151 108.1573 138.9477  0.98461736106681
RADUGA 20 [-]           
1 17611U 87028A   16137.85223850 -.00000141  00000-0  00000+0 0  9998
2 17611  17.0826   0.4501 0025708  85.1870 217.9609  0.95962616102947
RADUGA 21 [-]           
1 18631U 87100A   16138.14949748  .00000093  00000-0  00000+0 0  9991
2 18631  15.2534 358.9690 0002886 182.5764 311.5649  1.00258386104140
RADUGA 22 [-]           
1 19596U 88095A   16136.82395138 -.00000387  00000-0  00000+0 0  9994
2 19596  14.8831   2.5066 0004997 120.4776 166.8362  1.00206553 84750
RADUGA 23 [-]           
1 19928U 89030A   16137.65721434 -.00000330  00000-0  00000+0 0  9995
2 19928  14.8680   4.1599 0020073 110.5246  98.5338  1.00202339 97908
RADUGA-1 1 [-]          
1 20083U 89048A   16136.75998880 -.00000137  00000-0  00000-0 0  9995
2 20083  15.3841   6.6924 0016900  60.4380  98.7900  0.98709343 94909
RADUGA 24 [-]           
1 20367U 89098A   16137.64970007  .00000097  00000-0  00000-0 0  9999
2 20367  15.2188   6.8007 0004347 196.2409 309.8871  1.00278476 96034
RADUGA 25 [-]           
1 20499U 90016A   16138.49521669  .00000057  00000-0  00000+0 0  9992
2 20499  14.9404   7.1738 0002813 170.3858  64.1150  1.00270841 96016
RADUGA 26 [-]           
1 21016U 90112A   16136.68898660 -.00000142  00000-0  00000+0 0  9998
2 21016  14.9490  10.2972 0001677  19.2037 168.3951  1.00322601 93294
RADUGA-1 2 [-]          
1 21038U 90116A   16138.83898517  .00000034  00000-0  00000+0 0  9995
2 21038  14.9792  10.3948 0002859  53.0508 170.8488  1.00312448 92985
RADUGA 27 [-]           
1 21132U 91014A   16137.64719436  .00000104  00000-0  00000+0 0  9996
2 21132  15.4927  10.7161 0000926 161.4410 339.0606  1.00191397 92367
RADUGA 28 [-]           
1 21821U 91087A   16137.64948308  .00000094  00000-0  00000-0 0  9992
2 21821  14.9395  13.7283 0004129  94.6570  44.3944  1.00334034 89382
RADUGA 29 [-]           
1 22557U 93013A   16136.76042331  .00000112  00000-0  00000-0 0  9994
2 22557  14.7373  17.8565 0002102  94.4563  72.1373  1.00352901 84732
RADUGA 30 [-]           
1 22836U 93062A   16138.72043911 -.00000131  00000-0  00000+0 0  9992
2 22836  14.5957  19.6085 0005080 213.8342 338.7763  1.00259559 82844
RADUGA-1 3 [-]          
1 22981U 94008A   16137.78730734 -.00000151  00000-0  00000-0 0  9998
2 22981  14.5569  20.8328 0002059 158.7064  58.7611  1.00215776 81549
RADUGA 31 [-]           
1 23010U 94012A   16137.96315543 -.00000316  00000-0  00000-0 0  9997
2 23010  14.5294  20.7913 0000931 114.7827 183.4950  1.00317965 81414
RADUGA 32 [-]           
1 23448U 94087A   16138.96268487 -.00000134  00000-0  00000+0 0  9996
2 23448  14.2566  23.3041 0008665 178.0160  98.7025  1.00262088 96012
RADUGA-1 4 [-]          
1 25642U 99010A   16137.91302808 -.00000373  00000-0  00000+0 0  9990
2 25642  13.6746  35.7566 0005453 184.2683  95.6931  1.00296017 63041
RADUGA-1 5 [-]          
1 26477U 00049A   16137.76481546 -.00000059  00000-0  00000-0 0  9993
2 26477  11.3201  37.4961 0000521 195.9464 344.7335  1.00338948 57481
RADUGA-1 6 [-]          
1 26936U 01045A   16137.40505442 -.00000176  00000-0  00000+0 0  9992
2 26936  10.9075  42.6535 0017430 118.7249  39.5251  0.97745897 52561
RADUGA-1 7 [-]          
1 28194U 04010A   16137.91881676 -.00000374  00000-0  00000+0 0  9997
2 28194   9.1155  50.0501 0003928 152.1609 115.5254  1.00344630 44477
RADUGA-1M 1 [-]         
1 32373U 07058A   16137.25631814 -.00000193  00000-0  00000-0 0  9990
2 32373   2.2921  75.0393 0000665 258.3865 346.1970  0.99401341 15778
RADUGA-1 8 [-]          
1 34264U 09010A   16137.80224220 -.00000155  00000-0  00000+0 0  9998
2 34264   4.9722  72.2528 0009148 297.1559 245.8832  0.99816292 26401
RADUGA-1M 2 [+]         
1 36358U 10002A   16138.05511814 -.00000194  00000-0  00000+0 0  9996
2 36358   0.0182 282.3455 0003029 146.1570 271.5219  1.00272729 23074
RADUGA-1M 3 [+]         
1 39375U 13062A   16138.11917396 -.00000049  00000-0  00000+0 0  9998
2 39375   0.0032 260.2641 0003291 176.3806 271.5081  1.00272657  9194
